OBJECT_NAME,OBJECT_ID,EPOCH,MEAN_MOTION,ECCENTRICITY,INCLINATION,RA_OF_ASC_NODE,ARG_OF_PERICENTER,MEAN_ANOMALY,EPHEMERIS_TYPE,CLASSIFICATION_TYPE,NORAD_CAT_ID,ELEMENT_SET_NO,REV_AT_EPOCH,BSTAR,MEAN_MOTION_DOT,MEAN_MOTION_DDOT
IPM 2 & BREEZE-M R/B,2020-097A,2026-06-11T04:37:37.698816,0.95297704,.00835046,5.3463,76.7944,279.3623,79.4544,0,U,47242,999,1921,0,-.67E-6,0
CMS-01,2020-099A,2026-06-11T15:30:24.704064,1.00271603,.00037057,0.0835,97.4099,180.4045,297.7719,0,U,47256,999,2014,0,-.148E-5,0
ONEWEB-0102,2020-100A,2026-06-11T13:38:50.652384,13.12445694,.0001541,87.8939,351.7934,94.5312,265.5993,0,U,47258,999,26399,-.14202434E-3,-.38E-6,0
ONEWEB-0109,2020-100B,2026-06-11T13:51:03.133440,13.12445199,.00017706,87.8948,351.7745,94.6327,265.5004,0,U,47259,999,26382,.58246083E-3,.222E-5,0
ONEWEB-0110,2020-100C,2026-06-11T12:40:18.271200,13.12442760,.00015396,87.8948,351.7684,85.8196,274.3108,0,U,47260,999,26398,.52060531E-3,.2E-5,0
ONEWEB-0111,2020-100D,2026-06-11T13:24:11.769984,13.12442245,.00018008,87.8948,351.7811,86.5501,273.5833,0,U,47261,999,26382,-.85543194E-3,-.295E-5,0
ONEWEB-0114,2020-100E,2026-06-11T12:18:21.025440,13.12444254,.00019678,87.8949,351.7876,96.1028,264.0325,0,U,47262,999,26377,.12432925E-2,.46E-5,0
ONEWEB-0117,2020-100F,2026-06-11T13:55:56.328384,13.12443845,.00017717,87.8946,351.7653,89.6354,270.4978,0,U,47263,999,26379,.84900727E-3,.318E-5,0
ONEWEB-0118,2020-100G,2026-06-11T12:54:56.261952,13.12441714,.00021113,87.8947,351.7761,92.9028,267.2343,0,U,47264,999,26398,-.4030824E-3,-.132E-5,0
ONEWEB-0119,2020-100H,2026-06-11T13:31:32.163744,13.12444117,.00018185,87.8937,351.7885,89.9719,270.1618,0,U,47265,999,26396,-.63535368E-3,-.216E-5,0
ONEWEB-0120,2020-100J,2026-06-11T12:16:07.190976,13.12444424,.00017967,87.8938,351.8001,95.8535,264.2798,0,U,47266,999,26398,.13701755E-2,.506E-5,0
ONEWEB-0121,2020-100K,2026-06-11T13:48:36.936000,13.12444673,.00017908,87.8948,351.7728,79.3647,280.7683,0,U,47267,999,26390,.43813729E-3,.17E-5,0
ONEWEB-0122,2020-100L,2026-06-11T13:40:05.122272,13.12444137,.00016949,87.8950,351.7783,93.6520,266.4802,0,U,47268,999,26381,-.10128352E-3,-.24E-6,0
ONEWEB-0123,2020-100M,2026-06-11T13:33:58.470048,13.12445154,.00019201,87.8937,351.7871,90.2980,269.8368,0,U,47269,999,26395,-.36561291E-3,-.119E-5,0
ONEWEB-0124,2020-100N,2026-06-11T13:19:19.972992,13.12444260,.0001815,87.8936,351.7924,86.1607,273.9729,0,U,47270,999,26383,-.1015971E-2,-.353E-5,0
ONEWEB-0125,2020-100P,2026-06-11T12:47:37.028544,13.12443394,.00020113,87.8948,351.7792,82.5873,277.5484,0,U,47271,999,26389,.14297999E-3,.64E-6,0
ONEWEB-0126,2020-100Q,2026-06-11T13:17:06.040032,13.12442841,.00018438,87.8940,351.7912,93.6421,266.4919,0,U,47272,999,26396,-.1138157E-2,-.397E-5,0
ONEWEB-0127,2020-100R,2026-06-11T14:17:53.350368,13.12443260,.00017773,87.8936,351.7819,94.0711,266.0621,0,U,47273,999,26399,.12122445E-2,.449E-5,0
ONEWEB-0128,2020-100S,2026-06-11T12:59:48.611904,13.12442229,.00015238,87.8935,351.8065,84.6489,275.4814,0,U,47274,999,26400,-.63759308E-3,-.217E-5,0
ONEWEB-0129,2020-100T,2026-06-11T12:30:33.100416,13.12442717,.00021639,87.8947,351.7838,121.2681,238.8660,0,U,47275,999,26393,.11845326E-2,.439E-5,0
ONEWEB-0130,2020-100U,2026-06-11T13:09:34.656192,13.12443044,.00017273,87.8947,351.7734,91.9408,268.1918,0,U,47276,999,26390,-.10560132E-2,-.367E-5,0
ONEWEB-0131,2020-100V,2026-06-11T13:04:41.232288,13.12443281,.00017544,87.8937,351.7930,89.8690,270.2640,0,U,47277,999,26394,-.82945901E-3,-.286E-5,0
ONEWEB-0132,2020-100W,2026-06-11T13:46:10.780896,13.12445066,.00017394,87.8939,351.7892,88.4559,271.6769,0,U,47278,999,26384,.31959324E-3,.128E-5,0
ONEWEB-0133,2020-100X,2026-06-11T12:20:35.278080,13.12444561,.00016528,87.8951,351.7764,87.0152,273.1166,0,U,47279,999,26399,.12924248E-2,.478E-5,0
ONEWEB-0134,2020-100Y,2026-06-11T13:26:38.524704,13.12444037,.00016012,87.8950,351.7643,95.4912,264.6399,0,U,47280,999,26397,-.12107869E-2,-.423E-5,0
ONEWEB-0135,2020-100Z,2026-06-11T12:45:10.775808,13.12443043,.00014817,87.8937,351.7936,92.2391,267.8907,0,U,47281,999,26399,.22267665E-3,.93E-6,0
ONEWEB-0136,2020-100AA,2026-06-11T13:12:00.446688,13.12443517,.00015478,87.8945,351.7704,96.8513,263.2791,0,U,47282,999,26392,-.11026529E-2,-.384E-5,0
ONEWEB-0137,2020-100AB,2026-06-11T14:00:48.510720,13.12445446,.00019511,87.8950,351.7739,88.9843,271.1509,0,U,47283,999,26383,.12502724E-2,.463E-5,0
ONEWEB-0138,2020-100AC,2026-06-11T11:39:18.785376,13.12444295,.00016718,87.8949,351.7991,96.0022,264.1298,0,U,47284,999,26390,-.71377166E-3,-.244E-5,0
ONEWEB-0139,2020-100AD,2026-06-11T12:38:03.745536,13.12443609,.00017827,87.8946,351.7773,91.0460,269.0872,0,U,47285,999,26398,.80415818E-3,.302E-5,0
ONEWEB-0140,2020-100AE,2026-06-11T13:21:46.191168,13.12443949,.00016902,87.8948,351.7622,85.5296,274.6025,0,U,47286,999,26395,-.10203045E-2,-.354E-5,0
ONEWEB-0141,2020-100AF,2026-06-11T12:37:39.966528,13.12443459,.0002112,87.8948,351.7732,90.5005,269.6365,0,U,47287,999,26393,.72014286E-3,.272E-5,0
ONEWEB-0142,2020-100AG,2026-06-11T14:10:47.941824,13.12443196,.0002076,87.8942,351.7822,99.0345,261.1018,0,U,47288,999,26393,.13124308E-2,.485E-5,0
ONEWEB-0143,2020-100AH,2026-06-11T12:35:25.622304,13.12443381,.00018305,87.8947,351.7938,89.4893,270.6445,0,U,47289,999,26390,.96327625E-3,.359E-5,0
ONEWEB-0144,2020-100AJ,2026-06-11T13:43:45.192576,13.12445113,.00017472,87.8952,351.7583,101.4703,258.6622,0,U,47290,999,26383,.57099986E-4,.33E-6,0
ONEWEB-0145,2020-100AK,2026-06-11T13:02:15.294048,13.12443348,.00018059,87.8940,351.7920,92.4250,267.7086,0,U,47291,999,26402,-.65520529E-3,-.223E-5,0
ONEWEB-0146,2020-100AL,2026-06-11T12:57:22.915584,13.12442739,.00017625,87.8947,351.7842,78.5463,281.5863,0,U,47292,999,26393,-.47434942E-3,-.158E-5,0
ONEWEB-0147,2020-100AM,2026-06-11T13:58:22.235520,13.12444847,.00016443,87.8949,351.7576,89.6495,270.4822,0,U,47293,999,26383,.88872704E-3,.332E-5,0
YAOGAN-33 01,2020-103A,2026-06-11T14:29:58.819200,14.58875932,.00038806,98.0426,44.3657,134.1958,225.9561,0,U,47302,999,29049,.82026848E-4,.34E-5,0
WEINA 2,2020-103B,2026-06-11T15:07:07.287744,14.65032229,.0001473,98.0549,51.9301,174.6632,185.4587,0,U,47303,999,29091,.12951175E-3,.648E-5,0
TURKSAT 5A,2021-001A,2026-06-10T01:27:43.057728,1.00271427,.00001307,0.0226,63.8245,109.3639,138.1054,0,U,47306,999,1989,0,.172E-5,0
TIANTONG-1 3,2021-003A,2026-06-11T15:20:38.936256,1.00271674,.00033066,1.7606,338.9334,108.7376,124.0254,0,U,47321,999,1990,0,-.14E-5,0
GMS-T,2021-004A,2026-06-11T14:47:01.593024,13.16657827,.00042884,90.1297,241.7602,75.3109,284.8498,0,U,47346,999,25886,-.45678491E-4,-.9E-7,0
STARLINK-2017,2021-005C,2026-06-11T15:06:54.513504,15.31712978,.00013937,53.1594,296.6627,77.2815,282.8343,0,U,47351,999,29811,.39274647E-3,.11847E-3,0
STARLINK-2034,2021-005D,2026-06-11T14:53:24.991296,15.31732369,.00011986,53.1599,335.7738,80.3485,279.7652,0,U,47352,999,29756,.32677265E-3,.9799E-4,0
STARLINK-2045,2021-005E,2026-06-11T14:34:38.394912,15.31720631,.00012421,53.1583,283.7648,81.5293,278.5849,0,U,47353,999,29829,.56634953E-4,.1394E-4,0
STARLINK-2046,2021-005F,2026-06-11T14:56:26.331936,15.31718416,.00011694,53.1611,307.0181,98.3640,261.7494,0,U,47354,999,29796,.10444275E-3,.2879E-4,0
STARLINK-2047,2021-005G,2026-06-11T15:38:58.052256,15.31719465,.00009777,53.1621,293.8885,92.3033,267.8080,0,U,47355,999,29814,.69638114E-4,.1798E-4,0
STARLINK-2049,2021-005H,2026-06-10T17:25:34.876704,15.31698617,.00011828,53.1611,324.1799,75.3432,284.7701,0,U,47356,999,29763,.41251344E-4,.915E-5,0
STARLINK-2050,2021-005J,2026-06-11T05:40:15.764448,15.31686475,.00015036,53.1631,347.7131,110.0500,250.0663,0,U,47357,999,29735,.12150972E-3,.3406E-4,0
STARLINK-2055,2021-005K,2026-06-11T14:55:49.137600,15.30888385,.0000521,53.1608,320.4045,93.0143,267.0918,0,U,47358,999,29776,.38318768E-3,.1125E-3,0
STARLINK-2071,2021-005N,2026-06-10T17:14:20.045184,15.30185862,.00009418,53.1617,324.6375,99.4472,260.6636,0,U,47361,999,29762,-.6034679E-5,-.538E-5,0
STARLINK-2076,2021-005P,2026-06-10T19:25:00.824448,15.35753206,.00017681,53.1592,348.7098,250.2720,109.8093,0,U,47362,999,29730,.12623751E-2,.44416E-3,0
STARLINK-2081,2021-005T,2026-06-10T20:09:15.012576,15.31695940,.00012855,53.1609,349.2766,85.9431,274.1717,0,U,47366,999,29729,.35395574E-4,.733E-5,0
STARLINK-2082,2021-005U,2026-06-10T19:22:17.707296,15.31684215,.00012851,53.1614,349.5011,86.3924,273.7224,0,U,47367,999,29729,.30014056E-3,.8955E-4,0
STARLINK-2084,2021-005V,2026-06-11T05:46:53.349600,15.31704413,.00013887,53.1612,347.3251,77.3636,282.7521,0,U,47368,999,29736,.629367E-4,.1588E-4,0
STARLINK-2088,2021-005Y,2026-06-10T20:30:35.775936,15.31691356,.00015769,53.1614,352.9600,109.7338,250.3834,0,U,47371,999,29724,.17069448E-3,.4934E-4,0
STARLINK-2092,2021-005AA,2026-06-11T05:59:49.438464,15.31681151,.00014397,53.1610,347.2659,82.8648,277.2517,0,U,47373,999,29736,.116107E-5,-.329E-5,0
STARLINK-2093,2021-005AB,2026-06-11T16:00:01.999584,15.94941002,.00062804,53.0403,295.8216,316.1869,219.4849,0,U,47374,999,602,.92575002E-3,.364887E-2,.63725693E-4
STARLINK-2094,2021-005AC,2026-06-10T19:42:23.567040,15.31699820,.00010104,53.1596,349.2917,98.5635,261.5480,0,U,47375,999,29729,.76563235E-4,.2012E-4,0
STARLINK-2096,2021-005AD,2026-06-11T05:12:51.173280,15.31705049,.00010219,53.1602,347.4536,82.3609,277.7508,0,U,47376,999,29735,.32622566E-4,.648E-5,0
STARLINK-2097,2021-005AE,2026-06-11T06:01:31.728288,15.31683757,.00014718,53.1611,351.0523,103.4503,256.6663,0,U,47377,999,29730,.16456985E-3,.4742E-4,0
STARLINK-2098,2021-005AF,2026-06-11T14:26:43.555200,15.31715523,.00009316,53.1603,297.3031,85.1386,274.9722,0,U,47378,999,29810,.11055932E-3,.3069E-4,0
STARLINK-2099,2021-005AG,2026-06-11T14:40:01.867008,15.31717186,.00012239,53.1596,296.6324,76.9810,283.1328,0,U,47379,999,29811,.15158076E-3,.4344E-4,0
STARLINK-2100,2021-005AH,2026-06-11T16:00:01.999584,15.79150085,.00072224,53.0541,297.7945,312.2910,287.3404,0,U,47380,999,599,.44723609E-3,.81816E-3,0
